NORAD_CAT_ID,OBJECT_NAME,OBJECT_TYPE,EPOCH,MEAN_MOTION,ECCENTRICITY,INCLINATION,RA_OF_ASC_NODE,ARG_OF_PERICENTER,MEAN_ANOMALY,BSTAR,MEAN_MOTION_DOT,MEAN_MOTION_DDOT,TLE_LINE0,TLE_LINE1,TLE_LINE2,SEMIMAJOR_AXIS,PERIOD,APOGEE,PERIGEE,DECAYED
54781.0,STARLINK-5443,PAYLOAD,2024-03-07 04:05:17,15.08840106,0.000129,53.2161,77.5432,102.8741,257.2395,0.00045251,6.921e-05,0.0,0 STARLINK-5443,1 54781U 22175Z   24067.17034272  .00006921  00000-0  45251-3 0  9995,2 54781  53.2161  77.5432 0001290 102.8741 257.2395 15.08840106 67388,6917.88,95.438,540.637,538.853,0.0
54781.0,STARLINK-5443,PAYLOAD,2024-03-07 07:16:04,15.08837259,0.0001256,53.2156,76.9488,96.6281,263.4854,0.00035702,5.398e-05,0.0,0 STARLINK-5443,1 54781U 22175Z   24067.30282496  .00005398  00000-0  35702-3 0  9990,2 54781  53.2156  76.9488 0001256  96.6281 263.4854 15.08837259 69563,6917.889,95.438,540.623,538.885,0.0
54781.0,STARLINK-5443,PAYLOAD,2024-03-08 03:56:03,15.08868279,0.0001636,53.2155,73.0836,85.9362,274.1817,-0.000714,-0.00011642,0.0,0 STARLINK-5443,1 54781U 22175Z   24068.16392510 -.00011642  00000-0 -71400-3 0  9990,2 54781  53.2155  73.0836 0001636  85.9362 274.1817 15.08868279 67539,6917.794,95.436,540.791,538.527,0.0
54781.0,STARLINK-5443,PAYLOAD,2024-03-08 07:06:51,15.08831123,0.0001369,53.2173,72.4886,100.3819,259.7327,0.0003012,4.508e-05,0.0,0 STARLINK-5443,1 54781U 22175Z   24068.29642609  .00004508  00000-0  30120-3 0  9996,2 54781  53.2173  72.4886 0001369 100.3819 259.7327 15.08831123 67554,6917.908,95.438,540.72,538.825,0.0
54781.0,STARLINK-5443,PAYLOAD,2024-03-08 16:39:08,15.08853256,0.0001374,53.2181,70.7046,109.5052,250.6088,4.6745e-05,4.56e-06,0.0,0 STARLINK-5443,1 54781U 22175Z   24068.69385198  .00000456  00000-0  46745-4 0  9996,2 54781  53.2181  70.7046 0001374 109.5052 250.6088 15.08853256 67610,6917.84,95.437,540.655,538.754,0.0
54781.0,STARLINK-5443,PAYLOAD,2024-03-09 03:46:52,15.08832553,0.0001442,53.2179,68.6251,93.5699,266.5458,4.1454e-05,3.72e-06,0.0,0 STARLINK-5443,1 54781U 22175Z   24069.15754764  .00000372  00000-0  41454-4 0  9996,2 54781  53.2179  68.6251 0001442  93.5699 266.5458 15.08832553 67687,6917.903,95.438,540.766,538.771,0.0
54781.0,STARLINK-5443,PAYLOAD,2024-03-09 06:57:38,15.08837131,0.0001422,53.2191,68.0326,97.5411,262.5742,7.6308e-05,9.27e-06,0.0,0 STARLINK-5443,1 54781U 22175Z   24069.29002528  .00000927  00000-0  76308-4 0  9997,2 54781  53.2191  68.0326 0001422  97.5411 262.5742 15.08837131 69863,6917.889,95.438,540.738,538.77,0.0
54781.0,STARLINK-5443,PAYLOAD,2024-03-09 16:29:56,15.08839861,0.0001444,53.2193,66.2479,95.9982,264.1174,8.7885e-05,1.111e-05,0.0,0 STARLINK-5443,1 54781U 22175Z   24069.68746342  .00001111  00000-0  87885-4 0  9997,2 54781  53.2193  66.2479 0001444  95.9982 264.1174 15.08839861 67769,6917.881,95.438,540.745,538.747,0.0
54781.0,STARLINK-5443,PAYLOAD,2024-03-10 05:13:02,15.08835214,0.0001632,53.2194,63.8689,103.5882,256.5292,4.4745e-05,4.24e-06,0.0,0 STARLINK-5443,1 54781U 22175Z   24070.21738874  .00000424  00000-0  44745-4 0  9993,2 54781  53.2194  63.8689 0001632 103.5882 256.5292 15.08835214 67843,6917.895,95.438,540.889,538.631,0.0
54781.0,STARLINK-5443,PAYLOAD,2024-03-10 16:20:43,15.08842563,0.0001487,53.2188,61.7865,98.1074,262.0086,6.6876e-05,7.77e-06,0.0,0 STARLINK-5443,1 54781U 22175Z   24070.68106368  .00000777  00000-0  66876-4 0  9991,2 54781  53.2188  61.7865 0001487  98.1074 262.0086 15.08842563 67915,6917.873,95.437,540.766,538.709,0.0
54781.0,STARLINK-5443,PAYLOAD,2024-03-11 05:03:49,15.08836935,0.000157,53.2192,59.4081,97.5409,262.5762,0.00010573,1.395e-05,0.0,0 STARLINK-5443,1 54781U 22175Z   24071.21098889  .00001395  00000-0  10573-3 0  9998,2 54781  53.2192  59.4081 0001570  97.5409 262.5762 15.08836935 67992,6917.89,95.438,540.841,538.669,0.0
54781.0,STARLINK-5443,PAYLOAD,2024-03-11 06:39:12,15.08838021,0.0001564,53.2181,59.1101,95.5803,264.5368,8.825e-05,1.117e-05,0.0,0 STARLINK-5443,1 54781U 22175Z   24071.27722631  .00001117  00000-0  88250-4 0  9993,2 54781  53.2181  59.1101 0001564  95.5803 264.5368 15.08838021 70164,6917.886,95.438,540.833,538.669,0.0
54781.0,STARLINK-5443,PAYLOAD,2024-03-11 16:11:30,15.08851271,0.0001637,53.2187,57.3208,83.6337,276.4842,0.00012235,1.66e-05,0.0,0 STARLINK-5443,1 54781U 22175Z   24071.67465886  .00001660  00000-0  12235-3 0  9995,2 54781  53.2187  57.3208 0001637  83.6337 276.4842 15.08851271 68066,6917.846,95.437,540.843,538.578,0.0
54781.0,STARLINK-5443,PAYLOAD,2024-03-12 04:54:36,15.08835519,0.0001669,53.2188,54.9417,89.2423,270.8761,3.0008e-05,1.9e-06,0.0,0 STARLINK-5443,1 54781U 22175Z   24072.20458781  .00000190  00000-0  30008-4 0  9997,2 54781  53.2188  54.9417 0001669  89.2423 270.8761 15.08835519 68149,6917.894,95.438,540.914,538.604,0.0
54781.0,STARLINK-5443,PAYLOAD,2024-03-12 16:02:17,15.08847388,0.0001591,53.2194,52.8634,89.5894,270.528,0.00011733,1.58e-05,0.0,0 STARLINK-5443,1 54781U 22175Z   24072.66826167  .00001580  00000-0  11733-3 0  9991,2 54781  53.2194  52.8634 0001591  89.5894 270.5280 15.08847388 68211,6917.858,95.437,540.823,538.622,0.0
54781.0,STARLINK-5443,PAYLOAD,2024-03-13 04:45:23,15.08844855,0.0001381,53.2183,50.4834,102.466,257.6487,6.6005e-05,7.63e-06,0.0,0 STARLINK-5443,1 54781U 22175Z   24073.19818342  .00000763  00000-0  66005-4 0  9991,2 54781  53.2183  50.4834 0001381 102.4660 257.6487 15.08844855 70458,6917.866,95.437,540.686,538.775,0.0
54781.0,STARLINK-5443,PAYLOAD,2024-03-13 22:14:37,15.08841351,0.0001922,53.2188,47.2133,86.4012,273.72,0.00014424,2.008e-05,0.0,0 STARLINK-5443,1 54781U 22175Z   24073.92682385  .00002008  00000-0  14424-3 0  9999,2 54781  53.2188  47.2133 0001922  86.4012 273.7200 15.08841351 70564,6917.876,95.437,541.071,538.412,0.0
54781.0,STARLINK-5443,PAYLOAD,2024-03-14 04:36:09,15.08843011,0.0001393,53.2175,46.0241,90.0378,270.0774,6.8862e-05,8.08e-06,0.0,0 STARLINK-5443,1 54781U 22175Z   24074.19178214  .00000808  00000-0  68862-4 0  9992,2 54781  53.2175  46.0241 0001393  90.0378 270.0774 15.08843011 68440,6917.871,95.437,540.7,538.773,0.0
54781.0,STARLINK-5443,PAYLOAD,2024-03-14 22:05:24,15.08838509,0.0001345,53.2173,42.7513,93.8797,266.2349,7.1178e-05,8.45e-06,0.0,0 STARLINK-5443,1 54781U 22175Z   24074.92042486  .00000845  00000-0  71178-4 0  9999,2 54781  53.2173  42.7513 0001345  93.8797 266.2349 15.08838509 70710,6917.885,95.438,540.68,538.819,0.0
54781.0,STARLINK-5443,PAYLOAD,2024-03-15 04:26:57,15.08837242,0.0001211,53.2169,41.5619,87.5027,272.6104,-6.2969e-05,-1.29e-05,0.0,0 STARLINK-5443,1 54781U 22175Z   24075.18538550 -.00001290  00000-0 -62969-4 0  9995,2 54781  53.2169  41.5619 0001211  87.5027 272.6104 15.08837242 68593,6917.889,95.438,540.592,538.916,0.0
54781.0,STARLINK-5443,PAYLOAD,2024-03-15 21:56:12,15.08817867,0.0001272,53.2173,38.2914,92.0929,268.0209,0.00033423,5.032e-05,0.0,0 STARLINK-5443,1 54781U 22175Z   24075.91403329  .00005032  00000-0  33423-3 0  9999,2 54781  53.2173  38.2914 0001272  92.0929 268.0209 15.08817867 70867,6917.948,95.439,540.693,538.933,0.0
54781.0,STARLINK-5443,PAYLOAD,2024-03-16 07:28:30,15.08838976,0.0001264,53.2179,36.5069,88.2935,271.8201,4.1164e-05,3.67e-06,0.0,0 STARLINK-5443,1 54781U 22175Z   24076.31146688  .00000367  00000-0  41164-4 0  9994,2 54781  53.2179  36.5069 0001264  88.2935 271.8201 15.08838976 68764,6917.884,95.438,540.623,538.874,0.0
54781.0,STARLINK-5443,PAYLOAD,2024-03-17 02:33:08,15.08833156,0.0001386,53.2186,32.9387,107.9592,252.1552,9.0797e-05,1.157e-05,0.0,0 STARLINK-5443,1 54781U 22175Z   24077.10635177  .00001157  00000-0  90797-4 0  9992,2 54781  53.2186  32.9387 0001386 107.9592 252.1552 15.08833156 68887,6917.901,95.438,540.725,538.807,0.0
54781.0,STARLINK-5443,PAYLOAD,2024-03-18 03:59:18,15.08838611,0.0001376,53.219,28.181,105.1784,254.936,7.8573e-05,9.63e-06,0.0,0 STARLINK-5443,1 54781U 22175Z   24078.16619176  .00000963  00000-0  78573-4 0  9992,2 54781  53.2190  28.1810 0001376 105.1784 254.9360 15.08838611 69049,6917.885,95.438,540.702,538.798,0.0
54781.0,STARLINK-5443,PAYLOAD,2024-03-18 05:34:42,15.08839369,0.0001415,53.2191,27.8837,107.4335,252.6812,8.4029e-05,1.05e-05,0.0,0 STARLINK-5443,1 54781U 22175Z   24078.23243115  .00001050  00000-0  84029-4 0  9997,2 54781  53.2191  27.8837 0001415 107.4335 252.6812 15.08839369 71216,6917.882,95.438,540.726,538.768,0.0
54781.0,STARLINK-5443,PAYLOAD,2024-03-19 05:25:28,15.08844916,0.0001417,53.2197,23.4215,99.9944,260.1208,0.00012436,1.692e-05,0.0,0 STARLINK-5443,1 54781U 22175Z   24079.22602876  .00001692  00000-0  12436-3 0  9994,2 54781  53.2197  23.4215 0001417  99.9944 260.1208 15.08844916 69200,6917.865,95.437,540.711,538.75,0.0
54781.0,STARLINK-5443,PAYLOAD,2024-03-20 02:05:30,15.08837794,0.0001559,53.2207,19.5485,84.319,275.798,2.4146e-05,9.6e-07,0.0,0 STARLINK-5443,1 54781U 22175Z   24080.08715661  .00000096  00000-0  24146-4 0  9996,2 54781  53.2207  19.5485 0001559  84.3190 275.7980 15.08837794 69334,6917.887,95.438,540.831,538.674,0.0
54781.0,STARLINK-5443,PAYLOAD,2024-03-20 05:16:16,15.0883569,0.0001499,53.2205,18.9602,92.2448,267.8716,4.3548e-06,-2.19e-06,0.0,0 STARLINK-5443,1 54781U 22175Z   24080.21963897 -.00000219  00000-0  43548-5 0  9993,2 54781  53.2205  18.9602 0001499  92.2448 267.8716 15.08835690 71518,6917.894,95.438,540.796,538.722,0.0
54781.0,STARLINK-5443,PAYLOAD,2024-03-21 05:07:03,15.08848608,0.0001504,53.2202,14.4988,84.6272,275.4892,7.7265e-05,9.42e-06,0.0,0 STARLINK-5443,1 54781U 22175Z   24081.21322924  .00000942  00000-0  77265-4 0  9998,2 54781  53.2202  14.4988 0001504  84.6272 275.4892 15.08848608 69509,6917.854,95.437,540.76,538.679,0.0
54781.0,STARLINK-5443,PAYLOAD,2024-03-21 22:36:17,15.08844012,0.000143,53.2189,11.2273,74.1721,285.9429,0.00015271,2.144e-05,0.0,0 STARLINK-5443,1 54781U 22175Z   24081.94186880  .00002144  00000-0  15271-3 0  9991,2 54781  53.2189  11.2273 0001430  74.1721 285.9429 15.08844012 71775,6917.868,95.437,540.722,538.744,0.0
